[{"OBJECT_NAME":"GLOBALSTAR M096","OBJECT_ID":"2013-005D","EPOCH":"2026-03-03T10:31:28.785504","MEAN_MOTION":12.62263276,"ECCENTRICITY":8.893e-5,"INCLINATION":52.0066,"RA_OF_ASC_NODE":161.4899,"ARG_OF_PERICENTER":109.1511,"MEAN_ANOMALY":250.9452,"EPHEMERIS_TYPE":0,"CLASSIFICATION_TYPE":"U","NORAD_CAT_ID":39075,"ELEMENT_SET_NO":999,"REV_AT_EPOCH":60403,"BSTAR":4.128568e-6,"MEAN_MOTION_DOT":-1.03e-6,"MEAN_MOTION_DDOT":0},{"OBJECT_NAME":"GLOBALSTAR M078","OBJECT_ID":"2013-005E","EPOCH":"2026-03-03T19:23:18.726432","MEAN_MOTION":12.62275925,"ECCENTRICITY":0.000149,"INCLINATION":51.9853,"RA_OF_ASC_NODE":244.5218,"ARG_OF_PERICENTER":62.8473,"MEAN_ANOMALY":297.2545,"EPHEMERIS_TYPE":0,"CLASSIFICATION_TYPE":"U","NORAD_CAT_ID":39076,"ELEMENT_SET_NO":999,"REV_AT_EPOCH":60270,"BSTAR":1.8939e-6,"MEAN_MOTION_DOT":-1.03e-6,"MEAN_MOTION_DDOT":0},{"OBJECT_NAME":"GLOBALSTAR M095","OBJECT_ID":"2013-005F","EPOCH":"2026-03-03T20:01:38.259840","MEAN_MOTION":12.62276081,"ECCENTRICITY":0.0001366,"INCLINATION":52.006,"RA_OF_ASC_NODE":241.8962,"ARG_OF_PERICENTER":85.6254,"MEAN_ANOMALY":274.4769,"EPHEMERIS_TYPE":0,"CLASSIFICATION_TYPE":"U","NORAD_CAT_ID":39077,"ELEMENT_SET_NO":999,"REV_AT_EPOCH":60256,"BSTAR":-4.5418e-5,"MEAN_MOTION_DOT":-1.12e-6,"MEAN_MOTION_DDOT":0},{"OBJECT_NAME":"GLOBALSTAR M087","OBJECT_ID":"2022-064A","EPOCH":"2026-03-04T03:56:56.721696","MEAN_MOTION":12.62266789,"ECCENTRICITY":6.74e-5,"INCLINATION":52.002,"RA_OF_ASC_NODE":22.1887,"ARG_OF_PERICENTER":84.6895,"MEAN_ANOMALY":275.4048,"EPHEMERIS_TYPE":0,"CLASSIFICATION_TYPE":"U","NORAD_CAT_ID":52888,"ELEMENT_SET_NO":999,"REV_AT_EPOCH":17787,"BSTAR":-8.8348e-7,"MEAN_MOTION_DOT":-1.04e-6,"MEAN_MOTION_DDOT":0}]
