GLOBALSTAR M096         
1 39075U 13005D   26062.43852761 -.00000103  00000+0  41286-5 0  9995
2 39075  52.0066 161.4899 0000889 109.1511 250.9452 12.62263276604033
GLOBALSTAR M078         
1 39076U 13005E   26062.80785563 -.00000103  00000+0  18939-5 0  9991
2 39076  51.9853 244.5218 0001490  62.8473 297.2545 12.62275925602708
GLOBALSTAR M095         
1 39077U 13005F   26062.83447060 -.00000112  00000+0 -45418-4 0  9994
2 39077  52.0060 241.8962 0001366  85.6254 274.4769 12.62276081602562
GLOBALSTAR M087         
1 52888U 22064A   26063.16454539 -.00000104  00000+0 -88348-6 0  9992
2 52888  52.0020  22.1887 0000674  84.6895 275.4048 12.62266789177876
